{
    "links": {
        "self": "http://www.neowsapp.com/rest/v1/neo/3837824?api_key=iIulBulltgU6a56xZRHN4H3l9WmuAYTsLGpBGhQ2"
    },
    "id": "3837824",
    "neo_reference_id": "3837824",
    "name": "(2019 AL10)",
    "designation": "2019 AL10",
    "nasa_jpl_url": "http://ssd.jpl.nasa.gov/sbdb.cgi?sstr=3837824",
    "absolute_magnitude_h": 25.2,
    "estimated_diameter": {
        "kilometers": {
            "estimated_diameter_min": 0.0242412481,
            "estimated_diameter_max": 0.0542050786
        },
        "meters": {
            "estimated_diameter_min": 24.2412481101,
            "estimated_diameter_max": 54.2050786336
        },
        "miles": {
            "estimated_diameter_min": 0.0150628086,
            "estimated_diameter_max": 0.0336814639
        },
        "feet": {
            "estimated_diameter_min": 79.5316564495,
            "estimated_diameter_max": 177.8381901842
        }
    },
    "is_potentially_hazardous_asteroid": false,
    "close_approach_data": [
        {
            "close_approach_date": "2019-01-09",
            "close_approach_date_full": "2019-Jan-09 06:19",
            "epoch_date_close_approach": 1547014740000,
            "relative_velocity": {
                "kilometers_per_second": "5.5140768869",
                "kilometers_per_hour": "19850.6767927512",
                "miles_per_hour": "12334.4385882514"
            },
            "miss_distance": {
                "astronomical": "0.078513925",
                "lunar": "30.541916825",
                "kilometers": "11745515.94533975",
                "miles": "7298325.18059855"
            },
            "orbiting_body": "Earth"
        }
    ],
    "orbital_data": {
        "orbit_id": "4",
        "orbit_determination_date": "2019-02-05 07:57:40",
        "first_observation_date": "2019-01-11",
        "last_observation_date": "2019-02-05",
        "data_arc_in_days": 25,
        "observations_used": 27,
        "orbit_uncertainty": "7",
        "minimum_orbit_intersection": ".0779468",
        "jupiter_tisserand_invariant": "4.053",
        "epoch_osculation": "2459000.5",
        "eccentricity": ".4018338948555201",
        "semi_major_axis": "1.734261599339735",
        "inclination": "5.163675146570077",
        "ascending_node_longitude": "318.1326397015559",
        "orbital_period": "834.2002942671077",
        "perihelion_distance": "1.037376506178686",
        "perihelion_argument": "135.6569488874592",
        "aphelion_distance": "2.431146692500784",
        "perihelion_time": "2459314.564720494007",
        "mean_anomaly": "224.4650449600056",
        "mean_motion": ".4315510345345543",
        "equinox": "J2000",
        "orbit_class": {
            "orbit_class_type": "AMO",
            "orbit_class_description": "Near-Earth asteroid orbits similar to that of 1221 Amor",
            "orbit_class_range": "1.017 AU < q (perihelion) < 1.3 AU"
        }
    },
    "is_sentry_object": false
}